IRIDIUM 26              
1 24903U 97043A   25181.20621706  .00000291  00000+0  91402-4 0  9993
2 24903  86.3957 105.1547 0002393  81.8045 278.3424 14.37154014459080
IRIDIUM 22              
1 24907U 97043E   25180.86806629  .00000246  00000+0  77979-4 0  9990
2 24907  86.3963 108.8472 0002212  83.5158 276.6291 14.35965115458590
DUMMY MASS 1            
1 24925U 97048A   25180.86669522  .00000287  00000+0  28837-4 0  9998
2 24925  86.3359 129.4684 0009046  98.5053 261.7198 14.86994083507010
DUMMY MASS 2            
1 24926U 97048B   25181.36939848  .00000304  00000+0  30992-4 0  9991
2 24926  86.3361 130.8453 0009737 106.3477 253.8819 14.86746490507108
IRIDIUM 29              
1 24944U 97051A   25181.37410702  .00000314  00000+0  10022-3 0  9991
2 24944  86.3975 138.3683 0002104  89.4124 270.7314 14.36476532455380
IRIDIUM 33              
1 24946U 97051C   25181.37039715  .00000251  00000+0  81413-4 0  9997
2 24946  86.3891 137.6312 0009437  46.4583 313.7396 14.34899151454648
IRIDIUM 28              
1 24948U 97051E   25181.40908774  .00000257  00000+0  79365-4 0  9992
2 24948  86.3980 135.8628 0002660  79.0741 281.0756 14.37393282455812
IRIDIUM 36              
1 24967U 97056C   25181.50958061  .00000274  00000+0  84828-4 0  9992
2 24967  86.3991 167.4045 0002231  81.9153 278.2297 14.37617919454130
